[{"OBJECT_NAME":"YAOGAN-16 01C","OBJECT_ID":"2012-066C","EPOCH":"2026-03-09T23:09:27.258912","MEAN_MOTION":13.45493604,"ECCENTRICITY":0.04277831,"INCLINATION":63.3553,"RA_OF_ASC_NODE":185.7575,"ARG_OF_PERICENTER":25.6135,"MEAN_ANOMALY":336.542,"EPHEMERIS_TYPE":0,"CLASSIFICATION_TYPE":"U","NORAD_CAT_ID":39013,"ELEMENT_SET_NO":999,"REV_AT_EPOCH":65278,"BSTAR":9.6966797e-5,"MEAN_MOTION_DOT":9.0e-8,"MEAN_MOTION_DDOT":0},{"OBJECT_NAME":"QIANFAN-82","OBJECT_ID":"2025-046K","EPOCH":"2026-03-09T22:02:13.782048","MEAN_MOTION":13.51000959,"ECCENTRICITY":0.00111186,"INCLINATION":88.9752,"RA_OF_ASC_NODE":310.9127,"ARG_OF_PERICENTER":233.9114,"MEAN_ANOMALY":126.1008,"EPHEMERIS_TYPE":0,"CLASSIFICATION_TYPE":"U","NORAD_CAT_ID":63168,"ELEMENT_SET_NO":999,"REV_AT_EPOCH":5924,"BSTAR":0.00023396096,"MEAN_MOTION_DOT":1.63e-6,"MEAN_MOTION_DDOT":0}]
